{"type": "FeatureCollection", "features": [ {"type": "Feature", "properties": {"norad_id": 66968, "name": "STARLINK-36152", "group": "last-30-days", "lat": -40.77315291751515, "lon": 5.135749308113081, "alt_km": 334.5362180472539, "timestamp": "2025-12-20T20:38:43.174881+00:00", "meta": {"OBJECT_NAME": "STARLINK-36152", "OBJECT_ID": "2025-288K", "EPOCH": "2025-12-20T14:00:03.000384", "MEAN_MOTION": 15.802318, "ECCENTRICITY": 0.00013276, "INCLINATION": 43.001, "RA_OF_ASC_NODE": 119.0969, "ARG_OF_PERICENTER": 280.3036, "MEAN_ANOMALY": 196.5191, "EPHEMERIS_TYPE": 0, "CLASSIFICATION_TYPE": "U", "NORAD_CAT_ID": 66968, "ELEMENT_SET_NO": 999, "REV_AT_EPOCH": 309, "BSTAR": -0.0081791871, "MEAN_MOTION_DOT": -0.01409129, "MEAN_MOTION_DDOT": 0}, "tle": {"line1": "1 66968U 25288K   25354.58336806 -.01409129  00000+0 -81792-2 0  9994", "line2": "2 66968  43.0010 119.0969 0001327 280.3036 196.5191 15.80231800  3097"}}, "geometry": {"type": "Point", "coordinates": [5.135749308113081, -40.77315291751515]}}, {"type": "Feature", "properties": {"norad_id": 66969, "name": "STARLINK-36149", "group": "last-30-days", "lat": -42.72513032826818, "lon": 19.732691228747, "alt_km": 335.2113674386692, "timestamp": "2025-12-20T20:38:43.174893+00:00", "meta": {"OBJECT_NAME": "STARLINK-36149", "OBJECT_ID": "2025-288L", "EPOCH": "2025-12-20T14:00:03.000384", "MEAN_MOTION": 15.80094664, "ECCENTRICITY": 0.00011225, "INCLINATION": 43.0011, "RA_OF_ASC_NODE": 119.0686, "ARG_OF_PERICENTER": 284.9794, "MEAN_ANOMALY": 203.0896, "EPHEMERIS_TYPE": 0, "CLASSIFICATION_TYPE": "U", "NORAD_CAT_ID": 66969, "ELEMENT_SET_NO": 999, "REV_AT_EPOCH": 309, "BSTAR": -0.0087072248, "MEAN_MOTION_DOT": -0.01480858, "MEAN_MOTION_DDOT": 0}, "tle": {"line1": "1 66969U 25288L   25354.58336806 -.01480858  00000+0 -87072-2 0  9990", "line2": "2 66969  43.0011 119.0686 0001122 284.9794 203.0896 15.80094664  3090"}}, "geometry": {"type": "Point", "coordinates": [19.732691228747, -42.72513032826818]}}, {"type": "Feature", "properties": {"norad_id": 66970, "name": "STARLINK-35703", "group": "last-30-days", "lat": -42.89580178351122, "lon": 31.754960932030563, "alt_km": 335.663245677777, "timestamp": "2025-12-20T20:38:43.174903+00:00", "meta": {"OBJECT_NAME": "STARLINK-35703", "OBJECT_ID": "2025-288M", "EPOCH": "2025-12-20T14:00:03.000384", "MEAN_MOTION": 15.79955938, "ECCENTRICITY": 0.00012288, "INCLINATION": 43.0011, "RA_OF_ASC_NODE": 119.0456, "ARG_OF_PERICENTER": 284.9526, "MEAN_ANOMALY": 212.13, "EPHEMERIS_TYPE": 0, "CLASSIFICATION_TYPE": "U", "NORAD_CAT_ID": 66970, "ELEMENT_SET_NO": 999, "REV_AT_EPOCH": 309, "BSTAR": -0.0093921809, "MEAN_MOTION_DOT": -0.01573734, "MEAN_MOTION_DDOT": 0}, "tle": {"line1": "1 66970U 25288M   25354.58336806 -.01573734  00000+0 -93922-2 0  9999", "line2": "2 66970  43.0011 119.0456 0001228 284.9526 212.1300 15.79955938  3096"}}, "geometry": {"type": "Point", "coordinates": [31.754960932030563, -42.89580178351122]}}, {"type": "Feature", "properties": {"norad_id": 66971, "name": "STARLINK-35678", "group": "last-30-days", "lat": -41.2272543244867, "lon": 7.508869999695676, "alt_km": 334.5041303029393, "timestamp": "2025-12-20T20:38:43.174914+00:00", "meta": {"OBJECT_NAME": "STARLINK-35678", "OBJECT_ID": "2025-288N", "EPOCH": "2025-12-20T14:00:03.000384", "MEAN_MOTION": 15.80252465, "ECCENTRICITY": 0.00013308, "INCLINATION": 43.0013, "RA_OF_ASC_NODE": 119.0928, "ARG_OF_PERICENTER": 282.3861, "MEAN_ANOMALY": 196.2707, "EPHEMERIS_TYPE": 0, "CLASSIFICATION_TYPE": "U", "NORAD_CAT_ID": 66971, "ELEMENT_SET_NO": 999, "REV_AT_EPOCH": 309, "BSTAR": -0.0081918437, "MEAN_MOTION_DOT": -0.01412272, "MEAN_MOTION_DDOT": 0}, "tle": {"line1": "1 66971U 25288N   25354.58336806 -.01412272  00000+0 -81918-2 0  9991", "line2": "2 66971  43.0013 119.0928 0001330 282.3861 196.2707 15.80252465  3091"}}, "geometry": {"type": "Point", "coordinates": [7.508869999695676, -41.2272543244867]}}, {"type": "Feature", "properties": {"norad_id": 66972, "name": "STARLINK-34846", "group": "last-30-days", "lat": -41.740884384759795, "lon": 10.625936161295355, "alt_km": 334.60254031771456, "timestamp": "2025-12-20T20:38:43.174924+00:00", "meta": {"OBJECT_NAME": "STARLINK-34846", "OBJECT_ID": "2025-288P", "EPOCH": "2025-12-20T14:00:03.000384", "MEAN_MOTION": 15.80196059, "ECCENTRICITY": 0.00014652, "INCLINATION": 43.0013, "RA_OF_ASC_NODE": 119.0864, "ARG_OF_PERICENTER": 282.5694, "MEAN_ANOMALY": 198.5466, "EPHEMERIS_TYPE": 0, "CLASSIFICATION_TYPE": "U", "NORAD_CAT_ID": 66972, "ELEMENT_SET_NO": 999, "REV_AT_EPOCH": 309, "BSTAR": -0.0082810403, "MEAN_MOTION_DOT": -0.01422688, "MEAN_MOTION_DDOT": 0}, "tle": {"line1": "1 66972U 25288P   25354.58336806 -.01422688  00000+0 -82810-2 0  9996", "line2": "2 66972  43.0013 119.0864 0001465 282.5694 198.5466 15.80196059  3099"}}, "geometry": {"type": "Point", "coordinates": [10.625936161295355, -41.740884384759795]}}, {"type": "Feature", "properties": {"norad_id": 66973, "name": "STARLINK-35778", "group": "last-30-days", "lat": -42.1466316489237, "lon": 13.60643716907897, "alt_km": 334.6309724680932, "timestamp": "2025-12-20T20:38:43.174936+00:00", "meta": {"OBJECT_NAME": "STARLINK-35778", "OBJECT_ID": "2025-288Q", "EPOCH": "2025-12-20T14:00:03.000384", "MEAN_MOTION": 15.80163944, "ECCENTRICITY": 0.00015721, "INCLINATION": 43.0015, "RA_OF_ASC_NODE": 119.0807, "ARG_OF_PERICENTER": 280.9381, "MEAN_ANOMALY": 202.4749, "EPHEMERIS_TYPE": 0, "CLASSIFICATION_TYPE": "U", "NORAD_CAT_ID": 66973, "ELEMENT_SET_NO": 999, "REV_AT_EPOCH": 309, "BSTAR": -0.0083761991, "MEAN_MOTION_DOT": -0.01435346, "MEAN_MOTION_DDOT": 0}, "tle": {"line1": "1 66973U 25288Q   25354.58336806 -.01435346  00000+0 -83762-2 0  9999", "line2": "2 66973  43.0015 119.0807 0001572 280.9381 202.4749 15.80163944  3099"}}, "geometry": {"type": "Point", "coordinates": [13.60643716907897, -42.1466316489237]}}, {"type": "Feature", "properties": {"norad_id": 66974, "name": "STARLINK-35780", "group": "last-30-days", "lat": -42.46841533760329, "lon": 16.565237756176074, "alt_km": 334.7780424836719, "timestamp": "2025-12-20T20:38:43.174946+00:00", "meta": {"OBJECT_NAME": "STARLINK-35780", "OBJECT_ID": "2025-288R", "EPOCH": "2025-12-20T14:00:03.000384", "MEAN_MOTION": 15.80133655, "ECCENTRICITY": 0.0001519, "INCLINATION": 43.0015, "RA_OF_ASC_NODE": 119.0755, "ARG_OF_PERICENTER": 282.2227, "MEAN_ANOMALY": 203.4432, "EPHEMERIS_TYPE": 0, "CLASSIFICATION_TYPE": "U", "NORAD_CAT_ID": 66974, "ELEMENT_SET_NO": 999, "REV_AT_EPOCH": 309, "BSTAR": -0.0084701641, "MEAN_MOTION_DOT": -0.01447758, "MEAN_MOTION_DDOT": 0}, "tle": {"line1": "1 66974U 25288R   25354.58336806 -.01447758  00000+0 -84702-2 0  9995", "line2": "2 66974  43.0015 119.0755 0001519 282.2227 203.4432 15.80133655  3093"}}, "geometry": {"type": "Point", "coordinates": [16.565237756176074, -42.46841533760329]}}, {"type": "Feature", "properties": {"norad_id": 66975, "name": "STARLINK-35777", "group": "last-30-days", "lat": -42.88015465102277, "lon": 22.57447715056216, "alt_km": 335.05489748639775, "timestamp": "2025-12-20T20:38:43.174960+00:00", "meta": {"OBJECT_NAME": "STARLINK-35777", "OBJECT_ID": "2025-288S", "EPOCH": "2025-12-20T14:00:03.000384", "MEAN_MOTION": 15.80086103, "ECCENTRICITY": 0.00014015, "INCLINATION": 43.0014, "RA_OF_ASC_NODE": 119.0638, "ARG_OF_PERICENTER": 279.0591, "MEAN_ANOMALY": 211.1225, "EPHEMERIS_TYPE": 0, "CLASSIFICATION_TYPE": "U", "NORAD_CAT_ID": 66975, "ELEMENT_SET_NO": 999, "REV_AT_EPOCH": 309, "BSTAR": -0.008862135, "MEAN_MOTION_DOT": -0.01503702, "MEAN_MOTION_DDOT": 0}, "tle": {"line1": "1 66975U 25288S   25354.58336806 -.01503702  00000+0 -88621-2 0  9992", "line2": "2 66975  43.0014 119.0638 0001401 279.0591 211.1225 15.80086103  3092"}}, "geometry": {"type": "Point", "coordinates": [22.57447715056216, -42.88015465102277]}}, {"type": "Feature", "properties": {"norad_id": 66976, "name": "STARLINK-35772", "group": "last-30-days", "lat": 41.450082552846496, "lon": -133.62017156707074, "alt_km": 365.12156732670246, "timestamp": "2025-12-20T20:38:43.174970+00:00", "meta": {"OBJECT_NAME": "STARLINK-35772", "OBJECT_ID": "2025-288T", "EPOCH": "2025-12-20T14:00:03.000384", "MEAN_MOTION": 15.67445861, "ECCENTRICITY": 0.00014921, "INCLINATION": 43.0004, "RA_OF_ASC_NODE": 119.4377, "ARG_OF_PERICENTER": 274.8746, "MEAN_ANOMALY": 65.582, "EPHEMERIS_TYPE": 0, "CLASSIFICATION_TYPE": "U", "NORAD_CAT_ID": 66976, "ELEMENT_SET_NO": 999, "REV_AT_EPOCH": 309, "BSTAR": -0.025726736, "MEAN_MOTION_DOT": -0.02503554, "MEAN_MOTION_DDOT": 0}, "tle": {"line1": "1 66976U 25288T   25354.58336806 -.02503554  00000+0 -25727-1 0  9996", "line2": "2 66976  43.0004 119.4377 0001492 274.8746  65.5820 15.67445861  3098"}}, "geometry": {"type": "Point", "coordinates": [-133.62017156707074, 41.450082552846496]}}, {"type": "Feature", "properties": {"norad_id": 66977, "name": "STARLINK-35770", "group": "last-30-days", "lat": -42.9707384632765, "lon": 25.880281413452128, "alt_km": 335.4976219689206, "timestamp": "2025-12-20T20:38:43.174980+00:00", "meta": {"OBJECT_NAME": "STARLINK-35770", "OBJECT_ID": "2025-288U", "EPOCH": "2025-12-20T14:00:03.000384", "MEAN_MOTION": 15.80024832, "ECCENTRICITY": 0.00011213, "INCLINATION": 43.0013, "RA_OF_ASC_NODE": 119.0578, "ARG_OF_PERICENTER": 282.681, "MEAN_ANOMALY": 210.0062, "EPHEMERIS_TYPE": 0, "CLASSIFICATION_TYPE": "U", "NORAD_CAT_ID": 66977, "ELEMENT_SET_NO": 999, "REV_AT_EPOCH": 309, "BSTAR": -0.009169011, "MEAN_MOTION_DOT": -0.01545236, "MEAN_MOTION_DDOT": 0}, "tle": {"line1": "1 66977U 25288U   25354.58336806 -.01545236  00000+0 -91690-2 0  9992", "line2": "2 66977  43.0013 119.0578 0001121 282.6810 210.0062 15.80024832  3097"}}, "geometry": {"type": "Point", "coordinates": [25.880281413452128, -42.9707384632765]}}]}